OBJECT_NAME,OBJECT_ID,EPOCH,MEAN_MOTION,ECCENTRICITY,INCLINATION,RA_OF_ASC_NODE,ARG_OF_PERICENTER,MEAN_ANOMALY,EPHEMERIS_TYPE,CLASSIFICATION_TYPE,NORAD_CAT_ID,ELEMENT_SET_NO,REV_AT_EPOCH,BSTAR,MEAN_MOTION_DOT,MEAN_MOTION_DDOT
ONEWEB-0309,2021-075W,2026-06-19T12:27:20.482848,13.17648531,.00020376,87.9129,5.3990,102.5979,257.5381,0,U,49095,999,23388,.11104763E-3,.56E-6,0
ONEWEB-0310,2021-075X,2026-06-19T01:34:01.431840,13.12441116,.00018344,87.8937,350.3068,92.1306,268.0032,0,U,49096,999,23543,-.15046496E-2,-.529E-5,0
ONEWEB-0311,2021-075Y,2026-06-19T07:09:01.280736,13.17649923,.00022291,87.9133,5.4426,81.2432,278.8952,0,U,49097,999,23390,-.15525114E-3,-.47E-6,0
ONEWEB-0312,2021-075Z,2026-06-19T05:41:32.888544,13.17652874,.00021964,87.9130,5.4656,90.4586,269.6797,0,U,49098,999,23387,-.1930497E-3,-.62E-6,0
ONEWEB-0313,2021-075AA,2026-06-19T05:48:37.794240,13.17648784,.00019652,87.9129,5.4701,86.0626,274.0730,0,U,49099,999,23386,-.7514435E-4,-.16E-6,0
ONEWEB-0314,2021-075AB,2026-06-19T12:17:38.124384,13.17649072,.00022479,87.9142,5.3892,90.3389,269.8000,0,U,49100,999,23387,.55545648E-4,.34E-6,0
ONEWEB-0315,2021-075AC,2026-06-19T11:53:41.643168,13.12442871,.00020309,87.8948,350.1852,81.7916,278.3443,0,U,49101,999,23547,.98776901E-3,.368E-5,0
ONEWEB-0316,2021-075AD,2026-06-19T08:37:17.711328,13.18686867,.00019083,87.9166,335.0236,92.1549,267.9802,0,U,49102,999,23749,-.15581842E-4,.7E-7,0
ONEWEB-0317,2021-075AE,2026-06-19T13:48:21.380544,13.12442645,.00016205,87.8949,350.1932,114.9642,245.1655,0,U,49103,999,23550,.78989551E-3,.297E-5,0
ONEWEB-0318,2021-075AF,2026-06-19T12:10:58.350720,13.18685531,.00019896,87.9172,334.9955,85.6929,274.4431,0,U,49104,999,23747,-.6990627E-5,.1E-6,0
ONEWEB-0319,2021-075AG,2026-06-19T07:11:26.808576,13.17649647,.00021454,87.9133,5.4476,76.0018,284.1352,0,U,49105,999,23388,.26838055E-3,.117E-5,0
ONEWEB-0323,2021-075AH,2026-06-19T13:21:31.125600,13.12444820,.00022743,87.8950,350.1781,81.1453,278.9933,0,U,49106,999,23486,.10082076E-2,.375E-5,0
ONEWEB-0329,2021-075AJ,2026-06-19T01:55:33.328704,13.17649321,.00020232,87.9132,5.4921,88.9308,271.2055,0,U,49107,999,23383,-.78893364E-4,-.18E-6,0
ONEWEB-0330,2021-075AK,2026-06-18T00:58:32.995488,13.17848881,.00020367,87.9135,5.7192,91.8176,268.3189,0,U,49108,999,23373,.61247942E-1,.23926E-3,0
ONEWEB-0292,2021-083A,2026-06-19T08:59:35.058912,13.13472230,.00019438,87.8953,319.8024,91.8556,268.2796,0,U,49186,999,23121,-.48009997E-3,-.163E-5,0
ONEWEB-0303,2021-083B,2026-06-19T12:06:06.562368,13.18686972,.00019556,87.9170,334.9950,89.3975,270.7381,0,U,49187,999,23028,.22708922E-4,.22E-6,0
ONEWEB-0306,2021-083C,2026-06-19T11:51:32.065632,13.18686853,.00017799,87.9173,334.9851,100.4348,259.6985,0,U,49188,999,23032,.76340198E-4,.43E-6,0
ONEWEB-0307,2021-083D,2026-06-19T08:51:02.769984,13.13470546,.00019382,87.8958,319.8004,95.4736,264.6614,0,U,49189,999,23121,-.6523645E-3,-.225E-5,0
ONEWEB-0320,2021-083E,2026-06-19T08:42:08.669376,13.18686044,.000182,87.9162,335.0289,93.6425,266.4915,0,U,49190,999,23026,-.70515538E-4,-.15E-6,0
ONEWEB-0321,2021-083F,2026-06-19T13:11:17.418624,13.20772061,.00018738,87.9195,273.9639,108.2745,251.8592,0,U,49191,999,23714,.57529113E-4,.36E-6,0
ONEWEB-0322,2021-083G,2026-06-19T08:44:55.669344,13.13468420,.00014426,87.8955,319.8019,104.6253,255.5036,0,U,49192,999,23120,-.73671473E-3,-.256E-5,0
ONEWEB-0324,2021-083H,2026-06-19T11:41:49.449696,13.18685483,.00020064,87.9174,334.9917,97.6897,262.4463,0,U,49193,999,23030,.10972167E-3,.56E-6,0
ONEWEB-0325,2021-083J,2026-06-19T11:46:41.061792,13.18686054,.00018116,87.9163,334.9994,91.6671,268.4669,0,U,49194,999,23031,.1440458E-3,.7E-6,0
ONEWEB-0326,2021-083K,2026-06-19T12:08:44.422080,13.18685014,.0001953,87.9172,334.9940,85.0106,275.1250,0,U,49195,999,23030,.61137331E-4,.37E-6,0
ONEWEB-0327,2021-083L,2026-06-19T12:08:20.202432,13.18684897,.00018812,87.9164,334.9981,79.9433,280.1911,0,U,49196,999,23032,.7500907E-4,.42E-6,0
ONEWEB-0328,2021-083M,2026-06-19T08:30:19.505088,13.13469535,.00019595,87.8964,319.7769,98.9845,261.1506,0,U,49197,999,23118,-.38467238E-3,-.128E-5,0
ONEWEB-0331,2021-083N,2026-06-19T11:58:48.917856,13.18686499,.00020689,87.9172,334.9894,85.8228,274.3141,0,U,49198,999,23031,.48271683E-4,.32E-6,0
ONEWEB-0333,2021-083P,2026-06-19T08:23:00.692448,13.13469280,.00017997,87.8955,319.8043,95.7508,264.3827,0,U,49199,999,23119,-.81708173E-4,-.17E-6,0
ONEWEB-0334,2021-083Q,2026-06-19T13:33:01.544544,13.21260969,.00015332,87.9195,273.9715,129.8544,230.2724,0,U,49200,999,23710,.2312061E-3,.108E-5,0
ONEWEB-0335,2021-083R,2026-06-19T08:15:41.986080,13.13470506,.00019526,87.8955,319.8026,93.0521,267.0831,0,U,49201,999,23120,.43098263E-3,.17E-5,0
